{
  "type": "FeatureCollection",
  "features": [
    {
      "type": "Feature",
      "properties": {
        "norad_id": 41866,
        "name": "GOES 16",
        "group": "weather",
        "lat": 0.05756193953018976,
        "lon": -171.11655426279214,
        "alt_km": 35782.89394367107,
        "timestamp": "2025-12-17T13:48:37.185661+00:00",
        "meta_object_name": "GOES 16",
        "meta_object_id": "2016-071A",
        "meta_epoch": "2025-12-16T23:07:52.980960",
        "meta_mean_motion": 1.00271853,
        "meta_eccentricity": 0.00030505,
        "meta_inclination": 0.0736,
        "meta_ra_of_asc_node": 102.337,
        "meta_arg_of_pericenter": 162.4144,
        "meta_mean_anomaly": 63.3907,
        "meta_ephemeris_type": 0,
        "meta_classification_type": "U",
        "meta_norad_cat_id": 41866,
        "meta_element_set_no": 999,
        "meta_rev_at_epoch": 3327,
        "meta_bstar": 0,
        "meta_mean_motion_dot": -6.7e-07,
        "meta_mean_motion_ddot": 0,
        "tle_line1": "1 41866U 16071A   25350.96380765 -.00000067  00000+0  00000+0 0  9991",
        "tle_line2": "2 41866   0.0736 102.3370 0003050 162.4144  63.3907  1.00271853 33279"
      },
      "geometry": {
        "type": "Point",
        "coordinates": [
          -171.11655426279214,
          0.05756193953018976
        ]
      }
    },
    {
      "type": "Feature",
      "properties": {
        "norad_id": 41882,
        "name": "FENGYUN 4A",
        "group": "weather",
        "lat": -0.7609649837216187,
        "lon": 57.377166642840855,
        "alt_km": 35806.2068760921,
        "timestamp": "2025-12-17T13:48:37.185679+00:00",
        "meta_object_name": "FENGYUN 4A",
        "meta_object_id": "2016-077A",
        "meta_epoch": "2025-12-17T05:21:15.895296",
        "meta_mean_motion": 1.00267787,
        "meta_eccentricity": 0.00045456,
        "meta_inclination": 1.8605,
        "meta_ra_of_asc_node": 82.349,
        "meta_arg_of_pericenter": 143.7539,
        "meta_mean_anomaly": 64.1017,
        "meta_ephemeris_type": 0,
        "meta_classification_type": "U",
        "meta_norad_cat_id": 41882,
        "meta_element_set_no": 999,
        "meta_rev_at_epoch": 3310,
        "meta_bstar": 0,
        "meta_mean_motion_dot": -3.34e-06,
        "meta_mean_motion_ddot": 0,
        "tle_line1": "1 41882U 16077A   25351.22310064 -.00000334  00000+0  00000+0 0  9997",
        "tle_line2": "2 41882   1.8605  82.3490 0004545 143.7539  64.1017  1.00267787 33105"
      },
      "geometry": {
        "type": "Point",
        "coordinates": [
          57.377166642840855,
          -0.7609649837216187
        ]
      }
    },
    {
      "type": "Feature",
      "properties": {
        "norad_id": 41884,
        "name": "CYGFM05",
        "group": "weather",
        "lat": -4.903981614596227,
        "lon": 8.485365158540555,
        "alt_km": 426.74732407668216,
        "timestamp": "2025-12-17T13:48:37.185695+00:00",
        "meta_object_name": "CYGFM05",
        "meta_object_id": "2016-078A",
        "meta_epoch": "2025-12-17T06:06:26.856864",
        "meta_mean_motion": 15.47802773,
        "meta_eccentricity": 0.00106373,
        "meta_inclination": 34.9607,
        "meta_ra_of_asc_node": 17.6362,
        "meta_arg_of_pericenter": 223.7116,
        "meta_mean_anomaly": 136.2764,
        "meta_ephemeris_type": 0,
        "meta_classification_type": "U",
        "meta_norad_cat_id": 41884,
        "meta_element_set_no": 999,
        "meta_rev_at_epoch": 50046,
        "meta_bstar": 0.00030370031,
        "meta_mean_motion_dot": 0.00016271,
        "meta_mean_motion_ddot": 0,
        "tle_line1": "1 41884U 16078A   25351.25447751  .00016271  00000+0  30370-3 0  9990",
        "tle_line2": "2 41884  34.9607  17.6362 0010637 223.7116 136.2764 15.47802773500468"
      },
      "geometry": {
        "type": "Point",
        "coordinates": [
          8.485365158540555,
          -4.903981614596227
        ]
      }
    },
    {
      "type": "Feature",
      "properties": {
        "norad_id": 41885,
        "name": "CYGFM04",
        "group": "weather",
        "lat": -34.46841000107773,
        "lon": -89.37912007635305,
        "alt_km": 411.2332943992096,
        "timestamp": "2025-12-17T13:48:37.185710+00:00",
        "meta_object_name": "CYGFM04",
        "meta_object_id": "2016-078B",
        "meta_epoch": "2025-12-17T07:58:43.992768",
        "meta_mean_motion": 15.50550337,
        "meta_eccentricity": 0.00097845,
        "meta_inclination": 34.9357,
        "meta_ra_of_asc_node": 351.7702,
        "meta_arg_of_pericenter": 249.677,
        "meta_mean_anomaly": 110.2901,
        "meta_ephemeris_type": 0,
        "meta_classification_type": "U",
        "meta_norad_cat_id": 41885,
        "meta_element_set_no": 999,
        "meta_rev_at_epoch": 50065,
        "meta_bstar": 0.00032656657,
        "meta_mean_motion_dot": 0.00019288,
        "meta_mean_motion_ddot": 0,
        "tle_line1": "1 41885U 16078B   25351.33245362  .00019288  00000+0  32657-3 0  9995",
        "tle_line2": "2 41885  34.9357 351.7702 0009784 249.6770 110.2901 15.50550337500651"
      },
      "geometry": {
        "type": "Point",
        "coordinates": [
          -89.37912007635305,
          -34.46841000107773
        ]
      }
    },
    {
      "type": "Feature",
      "properties": {
        "norad_id": 41886,
        "name": "CYGFM02",
        "group": "weather",
        "lat": -23.48867943569865,
        "lon": -50.05028570123223,
        "alt_km": 408.91530395275186,
        "timestamp": "2025-12-17T13:48:37.185725+00:00",
        "meta_object_name": "CYGFM02",
        "meta_object_id": "2016-078C",
        "meta_epoch": "2025-12-17T07:49:27.396192",
        "meta_mean_motion": 15.51943458,
        "meta_eccentricity": 0.00114443,
        "meta_inclination": 34.9445,
        "meta_ra_of_asc_node": 350.0791,
        "meta_arg_of_pericenter": 249.9662,
        "meta_mean_anomaly": 109.9829,
        "meta_ephemeris_type": 0,
        "meta_classification_type": "U",
        "meta_norad_cat_id": 41886,
        "meta_element_set_no": 999,
        "meta_rev_at_epoch": 50078,
        "meta_bstar": 0.00033418453,
        "meta_mean_motion_dot": 0.00020771,
        "meta_mean_motion_ddot": 0,
        "tle_line1": "1 41886U 16078C   25351.32601153  .00020771  00000+0  33418-3 0  9994",
        "tle_line2": "2 41886  34.9445 350.0791 0011444 249.9662 109.9829 15.51943458500788"
      },
      "geometry": {
        "type": "Point",
        "coordinates": [
          -50.05028570123223,
          -23.48867943569865
        ]
      }
    },
    {
      "type": "Feature",
      "properties": {
        "norad_id": 41887,
        "name": "CYGFM01",
        "group": "weather",
        "lat": 24.207138008229247,
        "lon": 57.934466320552836,
        "alt_km": 423.5783807946673,
        "timestamp": "2025-12-17T13:48:37.185741+00:00",
        "meta_object_name": "CYGFM01",
        "meta_object_id": "2016-078D",
        "meta_epoch": "2025-12-17T05:52:35.570496",
        "meta_mean_motion": 15.48387033,
        "meta_eccentricity": 0.00102034,
        "meta_inclination": 34.9438,
        "meta_ra_of_asc_node": 20.0171,
        "meta_arg_of_pericenter": 215.9892,
        "meta_mean_anomaly": 144.0143,
        "meta_ephemeris_type": 0,
        "meta_classification_type": "U",
        "meta_norad_cat_id": 41887,
        "meta_element_set_no": 999,
        "meta_rev_at_epoch": 50040,
        "meta_bstar": 0.00030197247,
        "meta_mean_motion_dot": 0.00016512,
        "meta_mean_motion_ddot": 0,
        "tle_line1": "1 41887U 16078D   25351.24485614  .00016512  00000+0  30197-3 0  9997",
        "tle_line2": "2 41887  34.9438  20.0171 0010203 215.9892 144.0143 15.48387033500402"
      },
      "geometry": {
        "type": "Point",
        "coordinates": [
          57.934466320552836,
          24.207138008229247
        ]
      }
    },
    {
      "type": "Feature",
      "properties": {
        "norad_id": 41888,
        "name": "CYGFM08",
        "group": "weather",
        "lat": 31.17715949969088,
        "lon": 120.73897514841975,
        "alt_km": 416.83449723849753,
        "timestamp": "2025-12-17T13:48:37.185756+00:00",
        "meta_object_name": "CYGFM08",
        "meta_object_id": "2016-078E",
        "meta_epoch": "2025-12-17T07:07:47.966880",
        "meta_mean_motion": 15.49604831,
        "meta_eccentricity": 0.00119484,
        "meta_inclination": 34.9467,
        "meta_ra_of_asc_node": 2.614,
        "meta_arg_of_pericenter": 239.2162,
        "meta_mean_anomaly": 120.7384,
        "meta_ephemeris_type": 0,
        "meta_classification_type": "U",
        "meta_norad_cat_id": 41888,
        "meta_element_set_no": 999,
        "meta_rev_at_epoch": 50064,
        "meta_bstar": 0.00031910171,
        "meta_mean_motion_dot": 0.00018237,
        "meta_mean_motion_ddot": 0,
        "tle_line1": "1 41888U 16078E   25351.29708295  .00018237  00000+0  31910-3 0  9996",
        "tle_line2": "2 41888  34.9467   2.6140 0011948 239.2162 120.7384 15.49604831500646"
      },
      "geometry": {
        "type": "Point",
        "coordinates": [
          120.73897514841975,
          31.17715949969088
        ]
      }
    }
  ]
}